start=new Date('2023-04-29T00:00:00.000Z').valueOf();
sats=[{"ECCENTRICITY":"0.00015460","MEAN_MOTION_DDOT":"0.0000000000000","COUNTRY_CODE":"US","LAUNCH_DATE":"2020-02-17","OBJECT_NAME":"STARLINK-1138","FILE":"3895770","MEAN_MOTION_DOT":"0.00007301","RA_OF_ASC_NODE":"64.2355","CENTER_NAME":"EARTH","PERIOD":"95.592","EPHEMERIS_TYPE":"0","ELEMENT_SET_NO":"999","REV_AT_EPOCH":"17705","MEAN_ELEMENT_THEORY":"SGP4","RCS_SIZE":"LARGE","OBJECT_TYPE":"PAYLOAD","EPOCH":"2023-04-28T06:10:56.166528","NORAD_CAT_ID":"45178","ARG_OF_PERICENTER":"91.3763","TLE_LINE1":"1 45178U 20012A   23118.25759452  .00007301  00000-0  50848-3 0  9993","OBJECT_ID":"2020-012A","SITE":"AFETR","SEMIMAJOR_AXIS":"6925.345","MEAN_MOTION":"15.06401018","CLASSIFICATION_TYPE":"U","TLE_LINE2":"2 45178  53.0547  64.2355 0001546  91.3763 268.7403 15.06401018177057","REF_FRAME":"TEME","PERIAPSIS":"546.140","INCLINATION":"53.0547","MEAN_ANOMALY":"268.7403","GP_ID":"230882849","BSTAR":"0.00050848000000","DECAY_DATE":null,"APOAPSIS":"548.281","TIME_SYSTEM":"UTC"},{"OBJECT_TYPE":"PAYLOAD","EPOCH":"2023-04-28T06:14:52.232928","NORAD_CAT_ID":"45179","MEAN_ELEMENT_THEORY":"SGP4","RCS_SIZE":"LARGE","EPHEMERIS_TYPE":"0","ELEMENT_SET_NO":"999","REV_AT_EPOCH":"17711","PERIOD":"95.590","FILE":"3895770","MEAN_MOTION_DOT":"0.00022021","RA_OF_ASC_NODE":"64.2099","CENTER_NAME":"EARTH","LAUNCH_DATE":"2020-02-17","OBJECT_NAME":"STARLINK-1143","COUNTRY_CODE":"US","ECCENTRICITY":"0.00014940","MEAN_MOTION_DDOT":"0.0000000000000","APOAPSIS":"548.141","DECAY_DATE":null,"TIME_SYSTEM":"UTC","BSTAR":"0.00149120000000","GP_ID":"230882098","MEAN_ANOMALY":"276.9460","CLASSIFICATION_TYPE":"U","TLE_LINE2":"2 45179  53.0527  64.2099 0001494  83.1699 276.9460 15.06434813177110","PERIAPSIS":"546.072","REF_FRAME":"TEME","INCLINATION":"53.0527","SEMIMAJOR_AXIS":"6925.242","MEAN_MOTION":"15.06434813","SITE":"AFETR","TLE_LINE1":"1 45179U 20012B   23118.26032677  .00022021  00000-0  14912-2 0  9995","ARG_OF_PERICENTER":"83.1699","OBJECT_ID":"2020-012B"},{"BSTAR":"0.00199920000000","APOAPSIS":"478.203","DECAY_DATE":null,"TIME_SYSTEM":"UTC","MEAN_ANOMALY":"263.4866","GP_ID":"230892957","SEMIMAJOR_AXIS":"6852.348","MEAN_MOTION":"15.30536503","CLASSIFICATION_TYPE":"U","INCLINATION":"53.0467","TLE_LINE2":"2 45180  53.0467  37.9151 0005824  96.6796 263.4866 15.30536503176889","REF_FRAME":"TEME","PERIAPSIS":"470.222","TLE_LINE1":"1 45180U 20012C   23118.77326994  .00059982  00000-0  19992-2 0  9990","ARG_OF_PERICENTER":"96.6796","OBJECT_ID":"2020-012C","SITE":"AFETR","MEAN_ELEMENT_THEORY":"SGP4","RCS_SIZE":"LARGE","EPOCH":"2023-04-28T18:33:30.522816","OBJECT_TYPE":"PAYLOAD","NORAD_CAT_ID":"45180","PERIOD":"94.085","EPHEMERIS_TYPE":"0","REV_AT_EPOCH":"17688","ELEMENT_SET_NO":"999","OBJECT_NAME":"STARLINK-1192","LAUNCH_DATE":"2020-02-17","FILE":"3895900","MEAN_MOTION_DOT":"0.00059982","CENTER_NAME":"EARTH","RA_OF_ASC_NODE":"37.9151","ECCENTRICITY":"0.00058240","MEAN_MOTION_DDOT":"0.0000000000000","COUNTRY_CODE":"US"},{"MEAN_MOTION_DDOT":"0.0000000000000","ECCENTRICITY":"0.00012990","COUNTRY_CODE":"US","LAUNCH_DATE":"2020-02-17","OBJECT_NAME":"STARLINK-1200","RA_OF_ASC_NODE":"62.7913","CENTER_NAME":"EARTH","MEAN_MOTION_DOT":"0.00012033","FILE":"3895770","PERIOD":"95.591","ELEMENT_SET_NO":"999","REV_AT_EPOCH":"17716","EPHEMERIS_TYPE":"0","RCS_SIZE":"LARGE","MEAN_ELEMENT_THEORY":"SGP4","NORAD_CAT_ID":"45181","OBJECT_TYPE":"PAYLOAD","EPOCH":"2023-04-28T13:52:42.167712","OBJECT_ID":"2020-012D","TLE_LINE1":"1 45181U 20012D   23118.57826583  .00012033  00000-0  82489-3 0  9996","ARG_OF_PERICENTER":"92.3009","SITE":"AFETR","MEAN_MOTION":"15.06418989","SEMIMAJOR_AXIS":"6925.290","REF_FRAME":"TEME","TLE_LINE2":"2 45181  53.0549  62.7913 0001299  92.3009 267.8129 15.06418989177167","PERIAPSIS":"546.256","INCLINATION":"53.0549","CLASSIFICATION_TYPE":"U","MEAN_ANOMALY":"267.8129","GP_ID":"230882599","BSTAR":"0.00082489000000","TIME_SYSTEM":"UTC","DECAY_DATE":null,"APOAPSIS":"548.055"},{"COUNTRY_CODE":"US","ECCENTRICITY":"0.00013460","MEAN_MOTION_DDOT":"0.0000000000000","FILE":"3895901","MEAN_MOTION_DOT":"0.00024073","CENTER_NAME":"EARTH","RA_OF_ASC_NODE":"41.8121","OBJECT_NAME":"STARLINK-1201","LAUNCH_DATE":"2020-02-17","EPHEMERIS_TYPE":"0","REV_AT_EPOCH":"17683","ELEMENT_SET_NO":"999","PERIOD":"95.587","EPOCH":"2023-04-28T19:08:26.966112","OBJECT_TYPE":"PAYLOAD","NORAD_CAT_ID":"45182","MEAN_ELEMENT_THEORY":"SGP4","RCS_SIZE":"LARGE","SITE":"AFETR","TLE_LINE1":"1 45182U 20012E   23118.79753433  .00024073  00000-0  16257-2 0  9990","ARG_OF_PERICENTER":"94.4592","OBJECT_ID":"2020-012E","CLASSIFICATION_TYPE":"U","INCLINATION":"53.0555","TLE_LINE2":"2 45182  53.0555  41.8121 0001346  94.4592 265.6551 15.06486400176838","REF_FRAME":"TEME","PERIAPSIS":"546.017","SEMIMAJOR_AXIS":"6925.084","MEAN_MOTION":"15.06486400","GP_ID":"230892971","MEAN_ANOMALY":"265.6551","DECAY_DATE":null,"APOAPSIS":"547.881","TIME_SYSTEM":"UTC","BSTAR":"0.00162570000000"},{"ECCENTRICITY":"0.00015420","MEAN_MOTION_DDOT":"0.0000000000000","COUNTRY_CODE":"US","OBJECT_NAME":"STARLINK-1202","LAUNCH_DATE":"2020-02-17","MEAN_MOTION_DOT":"0.00014156","FILE":"3895770","CENTER_NAME":"EARTH","RA_OF_ASC_NODE":"62.9274","PERIOD":"95.591","EPHEMERIS_TYPE":"0","REV_AT_EPOCH":"17716","ELEMENT_SET_NO":"999","MEAN_ELEMENT_THEORY":"SGP4","RCS_SIZE":"LARGE","EPOCH":"2023-04-28T13:10:13.989792","OBJECT_TYPE":"PAYLOAD","NORAD_CAT_ID":"45183","ARG_OF_PERICENTER":"92.3769","TLE_LINE1":"1 45183U 20012F   23118.54877303  .00014156  00000-0  96678-3 0  9994","OBJECT_ID":"2020-012F","SITE":"AFETR","SEMIMAJOR_AXIS":"6925.283","MEAN_MOTION":"15.06421458","CLASSIFICATION_TYPE":"U","INCLINATION":"53.0554","PERIAPSIS":"546.080","TLE_LINE2":"2 45183  53.0554  62.9274 0001542  92.3769 267.7397 15.06421458177162","REF_FRAME":"TEME","MEAN_ANOMALY":"267.7397","GP_ID":"230881599","BSTAR":"0.00096678000000","APOAPSIS":"548.216","DECAY_DATE":null,"TIME_SYSTEM":"UTC"},{"PERIOD":"95.592","EPHEMERIS_TYPE":"0","ELEMENT_SET_NO":"999","REV_AT_EPOCH":"17671","MEAN_ELEMENT_THEORY":"SGP4","RCS_SIZE":"LARGE","OBJECT_TYPE":"PAYLOAD","EPOCH":"2023-04-28T04:59:16.137024","NORAD_CAT_ID":"45184","ECCENTRICITY":"0.00012370","MEAN_MOTION_DDOT":"0.0000000000000","COUNTRY_CODE":"US","LAUNCH_DATE":"2020-02-17","OBJECT_NAME":"STARLINK-1205","FILE":"3895153","MEAN_MOTION_DOT":"0.00007910","RA_OF_ASC_NODE":"44.4542","CENTER_NAME":"EARTH","MEAN_ANOMALY":"262.6868","GP_ID":"230850050","BSTAR":"0.00054941000000","DECAY_DATE":null,"APOAPSIS":"548.085","TIME_SYSTEM":"UTC","TLE_LINE1":"1 45184U 20012G   23118.20782566  .00007910  00000-0  54941-3 0  9991","ARG_OF_PERICENTER":"97.4261","OBJECT_ID":"2020-012G","SITE":"AFETR","SEMIMAJOR_AXIS":"6925.363","MEAN_MOTION":"15.06395301","CLASSIFICATION_TYPE":"U","TLE_LINE2":"2 45184  53.0543  44.4542 0001237  97.4261 262.6868 15.06395301176712","PERIAPSIS":"546.371","REF_FRAME":"TEME","INCLINATION":"53.0543"},{"PERIAPSIS":"546.183","TLE_LINE2":"2 45185  53.0539  62.9576 0001666  91.7517 268.3663 15.06359913177106","REF_FRAME":"TEME","INCLINATION":"53.0539","CLASSIFICATION_TYPE":"U","MEAN_MOTION":"15.06359913","SEMIMAJOR_AXIS":"6925.471","SITE":"AFETR","OBJECT_ID":"2020-012H","TLE_LINE1":"1 45185U 20012H   23118.54138258  .00003823  00000-0  27568-3 0  9996","ARG_OF_PERICENTER":"91.7517","TIME_SYSTEM":"UTC","APOAPSIS":"548.490","DECAY_DATE":null,"BSTAR":"0.00027568000000","GP_ID":"230883099","MEAN_ANOMALY":"268.3663","RA_OF_ASC_NODE":"62.9576","CENTER_NAME":"EARTH","MEAN_MOTION_DOT":"0.00003823","FILE":"3895770","LAUNCH_DATE":"2020-02-17","OBJECT_NAME":"STARLINK-1216","COUNTRY_CODE":"US","MEAN_MOTION_DDOT":"0.0000000000000","ECCENTRICITY":"0.00016660","NORAD_CAT_ID":"45185","OBJECT_TYPE":"PAYLOAD","EPOCH":"2023-04-28T12:59:35.454912","RCS_SIZE":"LARGE","MEAN_ELEMENT_THEORY":"SGP4","ELEMENT_SET_NO":"999","REV_AT_EPOCH":"17710","EPHEMERIS_TYPE":"0","PERIOD":"95.595"},{"MEAN_MOTION_DDOT":"0.0000000000000","ECCENTRICITY":"0.00015350","COUNTRY_CODE":"US","OBJECT_NAME":"STARLINK-1224","LAUNCH_DATE":"2020-02-17","CENTER_NAME":"EARTH","RA_OF_ASC_NODE":"62.8898","FILE":"3895770","MEAN_MOTION_DOT":"0.00021730","PERIOD":"95.592","REV_AT_EPOCH":"17710","ELEMENT_SET_NO":"999","EPHEMERIS_TYPE":"0","RCS_SIZE":"LARGE","MEAN_ELEMENT_THEORY":"SGP4","NORAD_CAT_ID":"45186","EPOCH":"2023-04-28T13:20:51.232992","OBJECT_TYPE":"PAYLOAD","OBJECT_ID":"2020-012J","TLE_LINE1":"1 45186U 20012J   23118.55614853  .00021730  00000-0  14731-2 0  9992","ARG_OF_PERICENTER":"107.2214","SITE":"AFETR","MEAN_MOTION":"15.06402987","SEMIMAJOR_AXIS":"6925.339","INCLINATION":"53.0550","REF_FRAME":"TEME","TLE_LINE2":"2 45186  53.0550  62.8898 0001535 107.2214 252.8943 15.06402987177107","PERIAPSIS":"546.141","CLASSIFICATION_TYPE":"U","MEAN_ANOMALY":"252.8943","GP_ID":"230882850","BSTAR":"0.00147310000000","TIME_SYSTEM":"UTC","DECAY_DATE":null,"APOAPSIS":"548.267"},{"MEAN_ELEMENT_THEORY":"SGP4","RCS_SIZE":"LARGE","EPOCH":"2023-04-28T13:26:09.451968","OBJECT_TYPE":"PAYLOAD","NORAD_CAT_ID":"45187","PERIOD":"95.591","EPHEMERIS_TYPE":"0","REV_AT_EPOCH":"17626","ELEMENT_SET_NO":"999","OBJECT_NAME":"STARLINK-1225","LAUNCH_DATE":"2020-02-17","FILE":"3895907","MEAN_MOTION_DOT":"0.00013942","CENTER_NAME":"EARTH","RA_OF_ASC_NODE":"62.8755","ECCENTRICITY":"0.00015190","MEAN_MOTION_DDOT":"0.0000000000000","COUNTRY_CODE":"US","BSTAR":"0.00095250000000","APOAPSIS":"548.208","DECAY_DATE":null,"TIME_SYSTEM":"UTC","MEAN_ANOMALY":"267.8249","GP_ID":"230892699","SEMIMAJOR_AXIS":"6925.291","MEAN_MOTION":"15.06418899","CLASSIFICATION_TYPE":"U","INCLINATION":"53.0546","PERIAPSIS":"546.104","TLE_LINE2":"2 45187  53.0546  62.8755 0001519  92.2914 267.8249 15.06418899176267","REF_FRAME":"TEME","ARG_OF_PERICENTER":"92.2914","TLE_LINE1":"1 45187U 20012K   23118.55983162  .00013942  00000-0  95250-3 0  9997","OBJECT_ID":"2020-012K","SITE":"AFETR"}];
